NORAD_CAT_ID,OBJECT_NAME,OBJECT_TYPE,EPOCH,MEAN_MOTION,ECCENTRICITY,INCLINATION,RA_OF_ASC_NODE,ARG_OF_PERICENTER,MEAN_ANOMALY,BSTAR,MEAN_MOTION_DOT,MEAN_MOTION_DDOT,TLE_LINE0,TLE_LINE1,TLE_LINE2,SEMIMAJOR_AXIS,PERIOD,APOGEE,PERIGEE,DECAYED
51815.0,STARLINK-3604,PAYLOAD,2023-12-01 15:19:09,15.08853339,0.0001367,53.2175,90.878,88.2314,271.8835,0.00025382,3.755e-05,0.0,0 STARLINK-3604,1 51815U 22017AZ  23335.63830194  .00003755  00000-0  25382-3 0  9995,2 51815  53.2175  90.8780 0001367  88.2314 271.8835 15.08853339 99041,6917.84,95.437,540.65,538.759,0.0
51815.0,STARLINK-3604,PAYLOAD,2023-12-02 13:34:32,15.08864843,0.000141,53.217,86.713,72.524,287.5906,0.0004069,6.198e-05,0.0,0 STARLINK-3604,1 51815U 22017AZ  23336.56565097  .00006198  00000-0  40690-3 0  9998,2 51815  53.2170  86.7130 0001410  72.5240 287.5906 15.08864843 99069,6917.804,95.436,540.645,538.694,0.0
51815.0,STARLINK-3604,PAYLOAD,2023-12-02 15:09:55,15.08867162,0.0001498,53.2176,86.4152,69.2956,290.8197,0.00043509,6.648e-05,0.0,0 STARLINK-3604,1 51815U 22017AZ  23336.63188941  .00006648  00000-0  43509-3 0  9997,2 51815  53.2176  86.4152 0001498  69.2956 290.8197 15.08867162 99076,6917.797,95.436,540.699,538.626,0.0
51815.0,STARLINK-3604,PAYLOAD,2023-12-03 11:49:59,15.08803877,0.0001222,53.2175,82.5539,86.1203,273.9929,-0.00061187,-0.00010003,0.0,0 STARLINK-3604,1 51815U 22017AZ  23337.49304664 -.00010003  00000-0 -61187-3 0  9998,2 51815  53.2175  82.5539 0001222  86.1203 273.9929 15.08803877 99325,6917.991,95.44,540.701,539.01,0.0
51815.0,STARLINK-3604,PAYLOAD,2023-12-03 13:25:22,15.08806734,0.000129,53.2172,82.2541,94.8236,265.2903,-0.00055061,-9.032e-05,0.0,0 STARLINK-3604,1 51815U 22017AZ  23337.55928629 -.00009032  00000-0 -55061-3 0  9992,2 51815  53.2172  82.2541 0001290  94.8236 265.2903 15.08806734 99218,6917.982,95.44,540.739,538.955,0.0
51815.0,STARLINK-3604,PAYLOAD,2023-12-04 11:40:46,15.08828482,0.0001927,53.2185,78.1028,42.0389,318.0751,3.0767e-05,2.01e-06,0.0,0 STARLINK-3604,1 51815U 22017AZ  23338.48664911  .00000201  00000-0  30767-4 0  9990,2 51815  53.2185  78.1028 0001927  42.0389 318.0751 15.08828482 99477,6917.916,95.438,541.114,538.448,0.0
51815.0,STARLINK-3604,PAYLOAD,2023-12-04 13:16:07,15.08855782,0.0001417,53.2191,77.7917,93.999,266.1164,-1.6685e-06,-3.15e-06,0.0,0 STARLINK-3604,1 51815U 22017AZ  23338.55287010 -.00000315  00000-0 -16685-5 0  9991,2 51815  53.2191  77.7917 0001417  93.9990 266.1164 15.08855782 99365,6917.832,95.437,540.677,538.717,0.0
51815.0,STARLINK-3604,PAYLOAD,2023-12-05 11:31:33,15.08844728,0.0001426,53.2181,73.6359,102.0789,258.0363,0.00076327,0.00011882,0.0,0 STARLINK-3604,1 51815U 22017AZ  23339.48024518  .00011882  00000-0  76327-3 0  9992,2 51815  53.2181  73.6359 0001426 102.0789 258.0363 15.08844728 99625,6917.866,95.437,540.717,538.744,0.0
51815.0,STARLINK-3604,PAYLOAD,2023-12-05 13:06:56,15.08850071,0.0001512,53.2186,73.3384,106.1061,254.0098,0.00081912,0.00012776,0.0,0 STARLINK-3604,1 51815U 22017AZ  23339.54648364  .00012776  00000-0  81912-3 0  9999,2 51815  53.2186  73.3384 0001512 106.1061 254.0098 15.08850071 99516,6917.85,95.437,540.761,538.669,0.0
51815.0,STARLINK-3604,PAYLOAD,2023-12-06 11:22:19,15.08853436,0.0001466,53.218,69.172,114.3176,245.7969,6.3196e-05,7.18e-06,0.0,0 STARLINK-3604,1 51815U 22017AZ  23340.47383479  .00000718  00000-0  63196-4 0  9994,2 51815  53.2180  69.1720 0001466 114.3176 245.7969 15.08853436 99773,6917.839,95.437,540.718,538.69,0.0
51815.0,STARLINK-3604,PAYLOAD,2023-12-07 11:13:06,15.08844533,0.0001247,53.2175,64.7092,86.9986,273.1148,-0.00013557,-2.445e-05,0.0,0 STARLINK-3604,1 51815U 22017AZ  23341.46743618 -.00002445  00000-0 -13557-3 0  9995,2 51815  53.2175  64.7092 0001247  86.9986 273.1148 15.08844533 99929,6917.867,95.437,540.594,538.869,0.0
51815.0,STARLINK-3604,PAYLOAD,2023-12-07 12:48:29,15.08844974,0.0001284,53.2179,64.4125,91.3888,268.7252,-0.00011635,-2.139e-05,0.0,0 STARLINK-3604,1 51815U 22017AZ  23341.53367568 -.00002139  00000-0 -11635-3 0  9994,2 51815  53.2179  64.4125 0001284  91.3888 268.7252 15.08844974 99812,6917.865,95.437,540.618,538.842,0.0
51815.0,STARLINK-3604,PAYLOAD,2023-12-08 11:03:54,15.08834544,0.0001331,53.2191,60.2522,95.6376,264.4768,0.00010095,1.319e-05,0.0,0 STARLINK-3604,1 51815U 22017AZ  23342.46104331  .00001319  00000-0  10095-3 0  9990,2 51815  53.2191  60.2522 0001331  95.6376 264.4768 15.08834544100071,6917.897,95.438,540.683,538.841,0.0
51815.0,STARLINK-3604,PAYLOAD,2023-12-09 12:30:04,15.0884159,0.0001258,53.2185,55.4916,80.5995,279.5139,0.00010066,1.315e-05,0.0,0 STARLINK-3604,1 51815U 22017AZ  23343.52088081  .00001315  00000-0  10066-3 0  9995,2 51815  53.2185  55.4916 0001258  80.5995 279.5139 15.08841590100118,6917.876,95.437,540.611,538.87,0.0
51815.0,STARLINK-3604,PAYLOAD,2023-12-10 12:20:51,15.08840805,0.000139,53.2189,51.0327,71.5326,288.5817,3.6223e-05,2.89e-06,0.0,0 STARLINK-3604,1 51815U 22017AZ  23344.51448512  .00000289  00000-0  36223-4 0  9997,2 51815  53.2189  51.0327 0001390  71.5326 288.5817 15.08840805100385,6917.878,95.438,540.705,538.781,0.0
51815.0,STARLINK-3604,PAYLOAD,2023-12-11 09:00:51,15.08835289,0.0001178,53.2197,47.1662,84.2855,275.8271,0.00021441,3.126e-05,0.0,0 STARLINK-3604,1 51815U 22017AZ  23345.37560127  .00003126  00000-0  21441-3 0  9997,2 51815  53.2197  47.1662 0001178  84.2855 275.8271 15.08835289100398,6917.895,95.438,540.575,538.945,0.0
51815.0,STARLINK-3604,PAYLOAD,2023-12-12 10:27:01,15.08844821,0.0001299,53.218,42.4123,81.3315,278.7824,5.8706e-05,6.47e-06,0.0,0 STARLINK-3604,1 51815U 22017AZ  23346.43543972  .00000647  00000-0  58706-4 0  9994,2 51815  53.2180  42.4123 0001299  81.3315 278.7824 15.08844821100672,6917.866,95.437,540.629,538.832,0.0
51815.0,STARLINK-3604,PAYLOAD,2023-12-13 10:17:48,15.08845394,0.0001465,53.2188,37.9494,98.5607,261.5551,7.0536e-05,8.35e-06,0.0,0 STARLINK-3604,1 51815U 22017AZ  23347.42903567  .00000835  00000-0  70536-4 0  9998,2 51815  53.2188  37.9494 0001465  98.5607 261.5551 15.08845394100706,6917.864,95.437,540.742,538.715,0.0
51815.0,STARLINK-3604,PAYLOAD,2023-12-14 10:08:36,15.08839294,0.0001602,53.2193,33.4893,103.1491,256.968,4.9139e-05,4.94e-06,0.0,0 STARLINK-3604,1 51815U 22017AZ  23348.42264002  .00000494  00000-0  49139-4 0  9999,2 51815  53.2193  33.4893 0001602 103.1491 256.9680 15.08839294100975,6917.883,95.438,540.856,538.639,0.0
51815.0,STARLINK-3604,PAYLOAD,2023-12-14 22:51:39,15.08859736,0.0001349,53.2186,31.1118,84.0298,276.0848,0.00014176,1.97e-05,0.0,0 STARLINK-3604,1 51815U 22017AZ  23348.95254115  .00001970  00000-0  14176-3 0  9993,2 51815  53.2186  31.1118 0001349  84.0298 276.0848 15.08859736101054,6917.82,95.436,540.618,538.752,0.0
51815.0,STARLINK-3604,PAYLOAD,2023-12-15 08:24:01,15.0881835,0.0001665,53.2196,29.3276,114.3545,245.7621,-0.0001557,-2.764e-05,0.0,0 STARLINK-3604,1 51815U 22017AZ  23349.35001199 -.00002764  00000-0 -15570-3 0  9993,2 51815  53.2196  29.3276 0001665 114.3545 245.7621 15.08818350101118,6917.947,95.439,540.963,538.66,0.0
51815.0,STARLINK-3604,PAYLOAD,2023-12-15 22:42:29,15.08823886,0.0001304,53.2186,26.6479,102.1798,257.934,-0.00012423,-2.264e-05,0.0,0 STARLINK-3604,1 51815U 22017AZ  23349.94617395 -.00002264  00000-0 -12423-3 0  9998,2 51815  53.2186  26.6479 0001304 102.1798 257.9340 15.08823886101200,6917.93,95.439,540.697,538.893,0.0
51815.0,STARLINK-3604,PAYLOAD,2023-12-16 09:50:10,15.08837049,0.0001158,53.2182,24.5695,88.1726,271.9399,-5.3982e-05,-1.147e-05,0.0,0 STARLINK-3604,1 51815U 22017AZ  23350.40984784 -.00001147  00000-0 -53982-4 0  9995,2 51815  53.2182  24.5695 0001158  88.1726 271.9399 15.08837049101277,6917.889,95.438,540.556,538.953,0.0
51815.0,STARLINK-3604,PAYLOAD,2023-12-17 09:40:58,15.08829409,0.0001673,53.2178,20.1089,100.3619,259.7562,0.00058544,9.039e-05,0.0,0 STARLINK-3604,1 51815U 22017AZ  23351.40345360  .00009039  00000-0  58544-3 0  9991,2 51815  53.2178  20.1089 0001673 100.3619 259.7562 15.08829409101302,6917.913,95.438,540.935,538.62,0.0
51815.0,STARLINK-3604,PAYLOAD,2023-12-18 09:31:44,15.08854773,0.0001672,53.2179,15.6522,70.5767,289.5406,0.00045058,6.893e-05,0.0,0 STARLINK-3604,1 51815U 22017AZ  23352.39704492  .00006893  00000-0  45058-3 0  9996,2 51815  53.2179  15.6522 0001672  70.5767 289.5406 15.08854773101574,6917.835,95.437,540.857,538.544,0.0
51815.0,STARLINK-3604,PAYLOAD,2023-12-19 07:47:08,15.08843715,0.0001902,53.2186,11.4851,69.9792,290.1404,0.00015552,2.188e-05,0.0,0 STARLINK-3604,1 51815U 22017AZ  23353.32440970  .00002188  00000-0  15552-3 0  9997,2 51815  53.2186  11.4851 0001902  69.9792 290.1404 15.08843715101713,6917.869,95.437,541.05,538.418,0.0
51815.0,STARLINK-3604,PAYLOAD,2023-12-20 04:27:10,15.08834078,0.0001752,53.2182,7.6198,102.826,257.2928,0.00011098,1.478e-05,0.0,0 STARLINK-3604,1 51815U 22017AZ  23354.18553455  .00001478  00000-0  11098-3 0  9997,2 51815  53.2182   7.6198 0001752 102.8260 257.2928 15.08834078101841,6917.898,95.438,540.976,538.551,0.0
51815.0,STARLINK-3604,PAYLOAD,2023-12-20 07:37:56,15.08838526,0.0001822,53.2186,7.0194,76.003,284.1165,7.269e-05,8.69e-06,0.0,0 STARLINK-3604,1 51815U 22017AZ  23354.31801437  .00000869  00000-0  72690-4 0  9997,2 51815  53.2186   7.0194 0001822  76.0030 284.1165 15.08838526101743,6917.885,95.438,541.01,538.489,0.0
51815.0,STARLINK-3604,PAYLOAD,2023-12-21 07:28:43,15.0885345,0.0001862,53.2184,2.5584,94.3197,265.8008,0.00046409,7.108e-05,0.0,0 STARLINK-3604,1 51815U 22017AZ  23355.31160962  .00007108  00000-0  46409-3 0  9990,2 51815  53.2184   2.5584 0001862  94.3197 265.8008 15.08853450102011,6917.839,95.437,540.992,538.416,0.0
51815.0,STARLINK-3604,PAYLOAD,2023-12-22 04:08:44,15.08841091,0.0001731,53.218,358.6935,106.8759,253.2423,6.1062e-05,6.84e-06,0.0,0 STARLINK-3604,1 51815U 22017AZ  23356.17273345  .00000684  00000-0  61062-4 0  9990,2 51815  53.2180 358.6935 0001731 106.8759 253.2423 15.08841091102144,6917.877,95.437,540.94,538.545,0.0
